[{"OBJECT_NAME":"STARLINK-3106","OBJECT_ID":"2021-082AL","EPOCH":"2026-03-09T23:20:17.340288","MEAN_MOTION":14.98331002,"ECCENTRICITY":0.00026012,"INCLINATION":69.9978,"RA_OF_ASC_NODE":273.7374,"ARG_OF_PERICENTER":271.0782,"MEAN_ANOMALY":89.0079,"EPHEMERIS_TYPE":0,"CLASSIFICATION_TYPE":"U","NORAD_CAT_ID":49164,"ELEMENT_SET_NO":999,"REV_AT_EPOCH":24767,"BSTAR":-7.967498e-6,"MEAN_MOTION_DOT":-1.88e-6,"MEAN_MOTION_DDOT":0},{"OBJECT_NAME":"THOR ALTAIR DEB","OBJECT_ID":"1966-026D","EPOCH":"2026-03-09T21:08:08.495232","MEAN_MOTION":14.80090516,"ECCENTRICITY":0.01273304,"INCLINATION":98.9687,"RA_OF_ASC_NODE":49.0062,"ARG_OF_PERICENTER":303.87,"MEAN_ANOMALY":55.0446,"EPHEMERIS_TYPE":0,"CLASSIFICATION_TYPE":"U","NORAD_CAT_ID":2177,"ELEMENT_SET_NO":999,"REV_AT_EPOCH":14815,"BSTAR":0.00075855056,"MEAN_MOTION_DOT":6.533e-5,"MEAN_MOTION_DDOT":0}]
